[{"OBJECT_NAME":"STARLINK-4254","OBJECT_ID":"2022-076N","EPOCH":"2026-03-09T08:25:10.453152","MEAN_MOTION":15.08838803,"ECCENTRICITY":0.00013083,"INCLINATION":53.2164,"RA_OF_ASC_NODE":95.5555,"ARG_OF_PERICENTER":95.1441,"MEAN_ANOMALY":264.9701,"EPHEMERIS_TYPE":0,"CLASSIFICATION_TYPE":"U","NORAD_CAT_ID":52998,"ELEMENT_SET_NO":999,"REV_AT_EPOCH":20279,"BSTAR":-2.7543188e-5,"MEAN_MOTION_DOT":-7.26e-6,"MEAN_MOTION_DDOT":0},{"OBJECT_NAME":"ARIANE 2 DEB","OBJECT_ID":"1989-006AG","EPOCH":"2026-03-07T07:31:45.202368","MEAN_MOTION":2.39486848,"ECCENTRICITY":0.7081526,"INCLINATION":8.644,"RA_OF_ASC_NODE":347.4698,"ARG_OF_PERICENTER":253.9092,"MEAN_ANOMALY":23.3342,"EPHEMERIS_TYPE":0,"CLASSIFICATION_TYPE":"U","NORAD_CAT_ID":28565,"ELEMENT_SET_NO":999,"REV_AT_EPOCH":18816,"BSTAR":0.0005313,"MEAN_MOTION_DOT":1.9e-7,"MEAN_MOTION_DDOT":0}]
